{"type": "FeatureCollection", "features": [ {"type": "Feature", "properties": {"norad_id": 31631, "name": "FENGYUN 1C DEB", "group": "fengyun-1c-debris", "lat": 63.57035447336924, "lon": 95.66211397934028, "alt_km": 684.4797794262167, "timestamp": "2025-12-11T15:53:39.826081+00:00", "meta": {"OBJECT_NAME": "FENGYUN 1C DEB", "OBJECT_ID": "1999-025CAM", "EPOCH": "2025-12-07T23:13:02.970336", "MEAN_MOTION": 14.70690476, "ECCENTRICITY": 0.00637569, "INCLINATION": 99.3452, "RA_OF_ASC_NODE": 252.0808, "ARG_OF_PERICENTER": 347.5014, "MEAN_ANOMALY": 12.4604, "EPHEMERIS_TYPE": 0, "CLASSIFICATION_TYPE": "U", "NORAD_CAT_ID": 31631, "ELEMENT_SET_NO": 999, "REV_AT_EPOCH": 63902, "BSTAR": 0.010414575, "MEAN_MOTION_DOT": 0.00066015, "MEAN_MOTION_DDOT": 0}, "tle": {"line1": "1 31631U 99025CAM 25341.96739549  .00066015  00000+0  10415-1 0  9995", "line2": "2 31631  99.3452 252.0808 0063756 347.5014  12.4604 14.70690476639025"}}, "geometry": {"type": "Point", "coordinates": [95.66211397934028, 63.57035447336924]}}, {"type": "Feature", "properties": {"norad_id": 31633, "name": "FENGYUN 1C DEB", "group": "fengyun-1c-debris", "lat": -44.29296147814009, "lon": 171.3171147618377, "alt_km": 846.650695441579, "timestamp": "2025-12-11T15:53:39.826092+00:00", "meta": {"OBJECT_NAME": "FENGYUN 1C DEB", "OBJECT_ID": "1999-025CAP", "EPOCH": "2025-11-15T20:43:47.485920", "MEAN_MOTION": 14.06334417, "ECCENTRICITY": 0.00656916, "INCLINATION": 98.7152, "RA_OF_ASC_NODE": 335.0833, "ARG_OF_PERICENTER": 248.7649, "MEAN_ANOMALY": 110.6494, "EPHEMERIS_TYPE": 0, "CLASSIFICATION_TYPE": "U", "NORAD_CAT_ID": 31633, "ELEMENT_SET_NO": 999, "REV_AT_EPOCH": 56706, "BSTAR": 0.0011592605, "MEAN_MOTION_DOT": 1.907e-05, "MEAN_MOTION_DDOT": 0}, "tle": {"line1": "1 31633U 99025CAP 25319.86374405  .00001907  00000+0  11593-2 0  9995", "line2": "2 31633  98.7152 335.0833 0065691 248.7649 110.6494 14.06334417567064"}}, "geometry": {"type": "Point", "coordinates": [171.3171147618377, -44.29296147814009]}}, {"type": "Feature", "properties": {"norad_id": 31634, "name": "FENGYUN 1C DEB", "group": "fengyun-1c-debris", "lat": 16.966202238778244, "lon": -144.97302959868617, "alt_km": 845.9318124498168, "timestamp": "2025-12-11T15:53:39.826104+00:00", "meta": {"OBJECT_NAME": "FENGYUN 1C DEB", "OBJECT_ID": "1999-025CAQ", "EPOCH": "2025-12-02T09:00:27.072576", "MEAN_MOTION": 13.94657889, "ECCENTRICITY": 0.00916924, "INCLINATION": 99.3683, "RA_OF_ASC_NODE": 22.7184, "ARG_OF_PERICENTER": 185.6903, "MEAN_ANOMALY": 174.3223, "EPHEMERIS_TYPE": 0, "CLASSIFICATION_TYPE": "U", "NORAD_CAT_ID": 31634, "ELEMENT_SET_NO": 999, "REV_AT_EPOCH": 56379, "BSTAR": 0.00031553586, "MEAN_MOTION_DOT": 3.91e-06, "MEAN_MOTION_DDOT": 0}, "tle": {"line1": "1 31634U 99025CAQ 25336.37531334  .00000391  00000+0  31554-3 0  9993", "line2": "2 31634  99.3683  22.7184 0091692 185.6903 174.3223 13.94657889563792"}}, "geometry": {"type": "Point", "coordinates": [-144.97302959868617, 16.966202238778244]}}, {"type": "Feature", "properties": {"norad_id": 31639, "name": "FENGYUN 1C DEB", "group": "fengyun-1c-debris", "lat": 69.35614266650933, "lon": -92.43492852069936, "alt_km": 910.1187565010277, "timestamp": "2025-12-11T15:53:39.826114+00:00", "meta": {"OBJECT_NAME": "FENGYUN 1C DEB", "OBJECT_ID": "1999-025CAV", "EPOCH": "2025-12-11T01:58:07.253760", "MEAN_MOTION": 13.85162426, "ECCENTRICITY": 0.01616172, "INCLINATION": 98.7432, "RA_OF_ASC_NODE": 291.1322, "ARG_OF_PERICENTER": 149.6829, "MEAN_ANOMALY": 271.5467, "EPHEMERIS_TYPE": 0, "CLASSIFICATION_TYPE": "U", "NORAD_CAT_ID": 31639, "ELEMENT_SET_NO": 999, "REV_AT_EPOCH": 93665, "BSTAR": 0.00016590379, "MEAN_MOTION_DOT": 1.69e-06, "MEAN_MOTION_DDOT": 0}, "tle": {"line1": "1 31639U 99025CAV 25345.08202840  .00000169  00000+0  16590-3 0  9999", "line2": "2 31639  98.7432 291.1322 0161617 149.6829 271.5467 13.85162426936657"}}, "geometry": {"type": "Point", "coordinates": [-92.43492852069936, 69.35614266650933]}}, {"type": "Feature", "properties": {"norad_id": 31642, "name": "FENGYUN 1C DEB", "group": "fengyun-1c-debris", "lat": 66.54152626625962, "lon": 47.708918499437246, "alt_km": 857.3438102115797, "timestamp": "2025-12-11T15:53:39.826125+00:00", "meta": {"OBJECT_NAME": "FENGYUN 1C DEB", "OBJECT_ID": "1999-025CAY", "EPOCH": "2025-12-10T04:23:29.491008", "MEAN_MOTION": 14.3339208, "ECCENTRICITY": 0.01190506, "INCLINATION": 98.5047, "RA_OF_ASC_NODE": 66.4257, "ARG_OF_PERICENTER": 264.0757, "MEAN_ANOMALY": 94.6849, "EPHEMERIS_TYPE": 0, "CLASSIFICATION_TYPE": "U", "NORAD_CAT_ID": 31642, "ELEMENT_SET_NO": 999, "REV_AT_EPOCH": 96982, "BSTAR": 0.00054505529, "MEAN_MOTION_DOT": 1.581e-05, "MEAN_MOTION_DDOT": 0}, "tle": {"line1": "1 31642U 99025CAY 25344.18298022  .00001581  00000+0  54506-3 0  9998", "line2": "2 31642  98.5047  66.4257 0119050 264.0757  94.6849 14.33392080969825"}}, "geometry": {"type": "Point", "coordinates": [47.708918499437246, 66.54152626625962]}}, {"type": "Feature", "properties": {"norad_id": 31644, "name": "FENGYUN 1C DEB", "group": "fengyun-1c-debris", "lat": -55.397440021761916, "lon": 42.66618857147091, "alt_km": 603.7066019278363, "timestamp": "2025-12-11T15:53:39.826134+00:00", "meta": {"OBJECT_NAME": "FENGYUN 1C DEB", "OBJECT_ID": "1999-025CBA", "EPOCH": "2025-12-10T22:32:03.920064", "MEAN_MOTION": 14.67869314, "ECCENTRICITY": 0.0154179, "INCLINATION": 98.6705, "RA_OF_ASC_NODE": 234.6786, "ARG_OF_PERICENTER": 188.798, "MEAN_ANOMALY": 186.0737, "EPHEMERIS_TYPE": 0, "CLASSIFICATION_TYPE": "U", "NORAD_CAT_ID": 31644, "ELEMENT_SET_NO": 999, "REV_AT_EPOCH": 71018, "BSTAR": 0.001296, "MEAN_MOTION_DOT": 8.812e-05, "MEAN_MOTION_DDOT": 0}, "tle": {"line1": "1 31644U 99025CBA 25344.93893426  .00008812  00000+0  12960-2 0  9993", "line2": "2 31644  98.6705 234.6786 0154179 188.7980 186.0737 14.67869314710187"}}, "geometry": {"type": "Point", "coordinates": [42.66618857147091, -55.397440021761916]}}, {"type": "Feature", "properties": {"norad_id": 31646, "name": "FENGYUN 1C DEB", "group": "fengyun-1c-debris", "lat": -74.99106726107101, "lon": 153.91775264195653, "alt_km": 834.5945675286239, "timestamp": "2025-12-11T15:53:39.826146+00:00", "meta": {"OBJECT_NAME": "FENGYUN 1C DEB", "OBJECT_ID": "1999-025CBC", "EPOCH": "2025-12-06T20:54:19.845792", "MEAN_MOTION": 14.14117745, "ECCENTRICITY": 0.00327131, "INCLINATION": 98.6907, "RA_OF_ASC_NODE": 4.0414, "ARG_OF_PERICENTER": 230.7291, "MEAN_ANOMALY": 129.0979, "EPHEMERIS_TYPE": 0, "CLASSIFICATION_TYPE": "U", "NORAD_CAT_ID": 31646, "ELEMENT_SET_NO": 999, "REV_AT_EPOCH": 63108, "BSTAR": 0.00078502967, "MEAN_MOTION_DOT": 1.459e-05, "MEAN_MOTION_DDOT": 0}, "tle": {"line1": "1 31646U 99025CBC 25340.87106303  .00001459  00000+0  78503-3 0  9991", "line2": "2 31646  98.6907   4.0414 0032713 230.7291 129.0979 14.14117745631084"}}, "geometry": {"type": "Point", "coordinates": [153.91775264195653, -74.99106726107101]}}, {"type": "Feature", "properties": {"norad_id": 31655, "name": "FENGYUN 1C DEB", "group": "fengyun-1c-debris", "lat": -80.46107457963006, "lon": 34.79374706661925, "alt_km": 1153.4572894575313, "timestamp": "2025-12-11T15:53:39.826157+00:00", "meta": {"OBJECT_NAME": "FENGYUN 1C DEB", "OBJECT_ID": "1999-025CBM", "EPOCH": "2025-12-08T02:11:00.557952", "MEAN_MOTION": 13.63822611, "ECCENTRICITY": 0.02885921, "INCLINATION": 99.2861, "RA_OF_ASC_NODE": 288.1866, "ARG_OF_PERICENTER": 150.074, "MEAN_ANOMALY": 229.9547, "EPHEMERIS_TYPE": 0, "CLASSIFICATION_TYPE": "U", "NORAD_CAT_ID": 31655, "ELEMENT_SET_NO": 999, "REV_AT_EPOCH": 59656, "BSTAR": 0.0034168292, "MEAN_MOTION_DOT": 3.556e-05, "MEAN_MOTION_DDOT": 0}, "tle": {"line1": "1 31655U 99025CBM 25342.09097868  .00003556  00000+0  34168-2 0  9990", "line2": "2 31655  99.2861 288.1866 0288592 150.0740 229.9547 13.63822611596569"}}, "geometry": {"type": "Point", "coordinates": [34.79374706661925, -80.46107457963006]}}, {"type": "Feature", "properties": {"norad_id": 31656, "name": "FENGYUN 1C DEB", "group": "fengyun-1c-debris", "lat": 66.86797387567992, "lon": -47.922571191393686, "alt_km": 713.2381153347487, "timestamp": "2025-12-11T15:53:39.826169+00:00", "meta": {"OBJECT_NAME": "FENGYUN 1C DEB", "OBJECT_ID": "1999-025CBN", "EPOCH": "2025-12-07T22:06:00.092160", "MEAN_MOTION": 14.46894273, "ECCENTRICITY": 0.00228069, "INCLINATION": 99.1931, "RA_OF_ASC_NODE": 330.2965, "ARG_OF_PERICENTER": 65.9258, "MEAN_ANOMALY": 324.8359, "EPHEMERIS_TYPE": 0, "CLASSIFICATION_TYPE": "U", "NORAD_CAT_ID": 31656, "ELEMENT_SET_NO": 999, "REV_AT_EPOCH": 96386, "BSTAR": 0.002990493, "MEAN_MOTION_DOT": 0.00010853, "MEAN_MOTION_DDOT": 0}, "tle": {"line1": "1 31656U 99025CBN 25341.92083440  .00010853  00000+0  29905-2 0  9994", "line2": "2 31656  99.1931 330.2965 0022806  65.9258 324.8359 14.46894273963860"}}, "geometry": {"type": "Point", "coordinates": [-47.922571191393686, 66.86797387567992]}}, {"type": "Feature", "properties": {"norad_id": 31657, "name": "FENGYUN 1C DEB", "group": "fengyun-1c-debris", "lat": 63.04782278148858, "lon": 94.925100883693, "alt_km": 839.8539165826469, "timestamp": "2025-12-11T15:53:39.826180+00:00", "meta": {"OBJECT_NAME": "FENGYUN 1C DEB", "OBJECT_ID": "1999-025CBP", "EPOCH": "2025-12-08T23:46:04.581120", "MEAN_MOTION": 13.96979692, "ECCENTRICITY": 0.0146321, "INCLINATION": 102.2162, "RA_OF_ASC_NODE": 246.1689, "ARG_OF_PERICENTER": 62.9314, "MEAN_ANOMALY": 298.6682, "EPHEMERIS_TYPE": 0, "CLASSIFICATION_TYPE": "U", "NORAD_CAT_ID": 31657, "ELEMENT_SET_NO": 999, "REV_AT_EPOCH": 62812, "BSTAR": 0.0038883, "MEAN_MOTION_DOT": 5.871e-05, "MEAN_MOTION_DDOT": 0}, "tle": {"line1": "1 31657U 99025CBP 25342.99033080  .00005871  00000+0  38883-2 0  9997", "line2": "2 31657 102.2162 246.1689 0146321  62.9314 298.6682 13.96979692628127"}}, "geometry": {"type": "Point", "coordinates": [94.925100883693, 63.04782278148858]}}]}